[{"OBJECT_NAME":"YAOGAN-30 06C","OBJECT_ID":"2019-045C","EPOCH":"2026-03-09T20:24:37.552032","MEAN_MOTION":15.02172666,"ECCENTRICITY":0.00010812,"INCLINATION":34.9925,"RA_OF_ASC_NODE":214.7382,"ARG_OF_PERICENTER":261.6749,"MEAN_ANOMALY":98.3837,"EPHEMERIS_TYPE":0,"CLASSIFICATION_TYPE":"U","NORAD_CAT_ID":44451,"ELEMENT_SET_NO":999,"REV_AT_EPOCH":36160,"BSTAR":0.00032595529,"MEAN_MOTION_DOT":4.352e-5,"MEAN_MOTION_DDOT":0},{"OBJECT_NAME":"STARLINK-5711","OBJECT_ID":"2023-015Y","EPOCH":"2026-03-08T03:19:44.798016","MEAN_MOTION":15.02506612,"ECCENTRICITY":0.00015825,"INCLINATION":43.0038,"RA_OF_ASC_NODE":334.159,"ARG_OF_PERICENTER":247.6794,"MEAN_ANOMALY":112.3881,"EPHEMERIS_TYPE":0,"CLASSIFICATION_TYPE":"U","NORAD_CAT_ID":55471,"ELEMENT_SET_NO":999,"REV_AT_EPOCH":17052,"BSTAR":-0.00016880703,"MEAN_MOTION_DOT":-2.481e-5,"MEAN_MOTION_DDOT":0}]
